FM27
1 25481C 98053G   19033.54413646  .00000000  00000-0  00000-0 0  9994
2 25481  45.0079  67.4317 0003509 263.7529  96.2917 14.32754294 63741
